start=new Date('2023-05-16T00:00:00.000Z').valueOf();
sats=[{"EPOCH":"2023-05-15T18:49:56.479872","MEAN_ANOMALY":"258.5979","OBJECT_NAME":"STARLINK-1989","OBJECT_ID":"2021-009AP","SEMIMAJOR_AXIS":"6925.382","MEAN_MOTION_DOT":"0.00018408","RCS_SIZE":"LARGE","REV_AT_EPOCH":"12632","EPHEMERIS_TYPE":"0","TIME_SYSTEM":"UTC","TLE_LINE2":"2 47585  53.0536 320.5529 0001342 101.5161 258.5979 15.06389210126328","SITE":"AFETR","GP_ID":"231902017","MEAN_MOTION_DDOT":"0.0000000000000","TLE_LINE1":"1 47585U 21009AP  23135.78468148  .00018408  00000-0  12518-2 0  9991","REF_FRAME":"TEME","DECAY_DATE":null,"LAUNCH_DATE":"2021-02-04","ELEMENT_SET_NO":"999","APOAPSIS":"548.176","MEAN_ELEMENT_THEORY":"SGP4","RA_OF_ASC_NODE":"320.5529","INCLINATION":"53.0536","ECCENTRICITY":"0.00013420","ARG_OF_PERICENTER":"101.5161","OBJECT_TYPE":"PAYLOAD","MEAN_MOTION":"15.06389210","PERIAPSIS":"546.317","CLASSIFICATION_TYPE":"U","PERIOD":"95.593","FILE":"3908826","COUNTRY_CODE":"US","BSTAR":"0.00125180000000","NORAD_CAT_ID":"47585","CENTER_NAME":"EARTH"},{"REF_FRAME":"TEME","TLE_LINE1":"1 47586U 21009AQ  23135.83445430  .00002169  00000-0  16450-3 0  9994","MEAN_MOTION_DDOT":"0.0000000000000","ELEMENT_SET_NO":"999","MEAN_ELEMENT_THEORY":"SGP4","APOAPSIS":"548.132","LAUNCH_DATE":"2021-02-04","DECAY_DATE":null,"PERIAPSIS":"546.318","MEAN_MOTION":"15.06396286","PERIOD":"95.592","CLASSIFICATION_TYPE":"U","ARG_OF_PERICENTER":"68.8809","INCLINATION":"53.0538","RA_OF_ASC_NODE":"340.3269","ECCENTRICITY":"0.00013100","OBJECT_TYPE":"PAYLOAD","CENTER_NAME":"EARTH","NORAD_CAT_ID":"47586","FILE":"3908892","BSTAR":"0.00016450000000","COUNTRY_CODE":"US","MEAN_ANOMALY":"291.2320","OBJECT_NAME":"STARLINK-1990","EPOCH":"2023-05-15T20:01:36.851520","REV_AT_EPOCH":"12544","OBJECT_ID":"2021-009AQ","RCS_SIZE":"LARGE","MEAN_MOTION_DOT":"0.00002169","SEMIMAJOR_AXIS":"6925.360","EPHEMERIS_TYPE":"0","TLE_LINE2":"2 47586  53.0538 340.3269 0001310  68.8809 291.2320 15.06396286125448","TIME_SYSTEM":"UTC","GP_ID":"231924371","SITE":"AFETR"},{"EPHEMERIS_TYPE":"0","SITE":"AFETR","GP_ID":"231901780","TLE_LINE2":"2 47587  53.0536 310.6486 0000955  64.1347 295.9740 15.06376115126456","TIME_SYSTEM":"UTC","OBJECT_NAME":"STARLINK-1991","MEAN_ANOMALY":"295.9740","EPOCH":"2023-05-15T18:19:25.979232","REV_AT_EPOCH":"12645","MEAN_MOTION_DOT":"0.00018076","RCS_SIZE":"LARGE","SEMIMAJOR_AXIS":"6925.422","OBJECT_ID":"2021-009AR","PERIOD":"95.594","CLASSIFICATION_TYPE":"U","PERIAPSIS":"546.625","MEAN_MOTION":"15.06376115","OBJECT_TYPE":"PAYLOAD","ARG_OF_PERICENTER":"64.1347","ECCENTRICITY":"0.00009550","RA_OF_ASC_NODE":"310.6486","INCLINATION":"53.0536","CENTER_NAME":"EARTH","NORAD_CAT_ID":"47587","BSTAR":"0.00123010000000","COUNTRY_CODE":"US","FILE":"3908822","REF_FRAME":"TEME","TLE_LINE1":"1 47587U 21009AR  23135.76349513  .00018076  00000-0  12301-2 0  9996","MEAN_MOTION_DDOT":"0.0000000000000","MEAN_ELEMENT_THEORY":"SGP4","APOAPSIS":"547.948","ELEMENT_SET_NO":"999","LAUNCH_DATE":"2021-02-04","DECAY_DATE":null},{"LAUNCH_DATE":"2021-02-04","DECAY_DATE":null,"APOAPSIS":"548.485","MEAN_ELEMENT_THEORY":"SGP4","ELEMENT_SET_NO":"999","TLE_LINE1":"1 47588U 21009AS  23135.68886209 -.00001672  00000-0 -93411-4 0  9995","MEAN_MOTION_DDOT":"0.0000000000000","REF_FRAME":"TEME","COUNTRY_CODE":"US","BSTAR":"-0.00009341100000","FILE":"3908892","NORAD_CAT_ID":"47588","CENTER_NAME":"EARTH","OBJECT_TYPE":"PAYLOAD","RA_OF_ASC_NODE":"320.9901","ECCENTRICITY":"0.00018030","INCLINATION":"53.0542","ARG_OF_PERICENTER":"101.5764","CLASSIFICATION_TYPE":"U","PERIOD":"95.593","MEAN_MOTION":"15.06392599","PERIAPSIS":"545.988","SEMIMAJOR_AXIS":"6925.371","RCS_SIZE":"LARGE","MEAN_MOTION_DOT":"-0.00001672","OBJECT_ID":"2021-009AS","REV_AT_EPOCH":"12570","EPOCH":"2023-05-15T16:31:57.684576","OBJECT_NAME":"STARLINK-1993","MEAN_ANOMALY":"258.5427","GP_ID":"231925372","SITE":"AFETR","TIME_SYSTEM":"UTC","TLE_LINE2":"2 47588  53.0542 320.9901 0001803 101.5764 258.5427 15.06392599125700","EPHEMERIS_TYPE":"0"},{"EPHEMERIS_TYPE":"0","SITE":"AFETR","GP_ID":"231901692","TLE_LINE2":"2 47589  53.0534 320.6011 0001328  93.8569 266.2572 15.06391803126311","TIME_SYSTEM":"UTC","OBJECT_NAME":"STARLINK-1994","MEAN_ANOMALY":"266.2572","EPOCH":"2023-05-15T18:34:01.994016","REV_AT_EPOCH":"12631","RCS_SIZE":"LARGE","MEAN_MOTION_DOT":"0.00016055","SEMIMAJOR_AXIS":"6925.374","OBJECT_ID":"2021-009AT","PERIOD":"95.593","CLASSIFICATION_TYPE":"U","PERIAPSIS":"546.319","MEAN_MOTION":"15.06391803","OBJECT_TYPE":"PAYLOAD","ARG_OF_PERICENTER":"93.8569","RA_OF_ASC_NODE":"320.6011","ECCENTRICITY":"0.00013280","INCLINATION":"53.0534","CENTER_NAME":"EARTH","NORAD_CAT_ID":"47589","BSTAR":"0.00109450000000","COUNTRY_CODE":"US","FILE":"3908822","REF_FRAME":"TEME","MEAN_MOTION_DDOT":"0.0000000000000","TLE_LINE1":"1 47589U 21009AT  23135.77363419  .00016055  00000-0  10945-2 0  9997","MEAN_ELEMENT_THEORY":"SGP4","APOAPSIS":"548.158","ELEMENT_SET_NO":"999","DECAY_DATE":null,"LAUNCH_DATE":"2021-02-04"},{"TLE_LINE2":"2 47590  53.0528 340.3433 0002087  81.3876 278.7349 15.06404251125444","TIME_SYSTEM":"UTC","SITE":"AFETR","GP_ID":"231923871","EPHEMERIS_TYPE":"0","REV_AT_EPOCH":"12544","OBJECT_ID":"2021-009AU","RCS_SIZE":"LARGE","MEAN_MOTION_DOT":"0.00001825","SEMIMAJOR_AXIS":"6925.336","MEAN_ANOMALY":"278.7349","OBJECT_NAME":"STARLINK-1995","EPOCH":"2023-05-15T19:56:17.970720","CENTER_NAME":"EARTH","NORAD_CAT_ID":"47590","FILE":"3908892","BSTAR":"0.00014139000000","COUNTRY_CODE":"US","PERIAPSIS":"545.755","MEAN_MOTION":"15.06404251","PERIOD":"95.592","CLASSIFICATION_TYPE":"U","ARG_OF_PERICENTER":"81.3876","RA_OF_ASC_NODE":"340.3433","INCLINATION":"53.0528","ECCENTRICITY":"0.00020870","OBJECT_TYPE":"PAYLOAD","ELEMENT_SET_NO":"999","MEAN_ELEMENT_THEORY":"SGP4","APOAPSIS":"548.646","DECAY_DATE":null,"LAUNCH_DATE":"2021-02-04","REF_FRAME":"TEME","MEAN_MOTION_DDOT":"0.0000000000000","TLE_LINE1":"1 47590U 21009AU  23135.83076355  .00001825  00000-0  14139-3 0  9995"},{"TLE_LINE1":"1 47591U 21009AV  23135.76994710  .00015305  00000-0  10444-2 0  9994","MEAN_MOTION_DDOT":"0.0000000000000","REF_FRAME":"TEME","LAUNCH_DATE":"2021-02-04","DECAY_DATE":null,"ELEMENT_SET_NO":"999","APOAPSIS":"548.339","MEAN_ELEMENT_THEORY":"SGP4","RA_OF_ASC_NODE":"320.6196","ECCENTRICITY":"0.00015870","INCLINATION":"53.0536","ARG_OF_PERICENTER":"86.4620","OBJECT_TYPE":"PAYLOAD","MEAN_MOTION":"15.06391338","PERIAPSIS":"546.141","CLASSIFICATION_TYPE":"U","PERIOD":"95.593","FILE":"3908822","COUNTRY_CODE":"US","BSTAR":"0.00104440000000","NORAD_CAT_ID":"47591","CENTER_NAME":"EARTH","EPOCH":"2023-05-15T18:28:43.429440","MEAN_ANOMALY":"273.6550","OBJECT_NAME":"STARLINK-1996","OBJECT_ID":"2021-009AV","SEMIMAJOR_AXIS":"6925.375","MEAN_MOTION_DOT":"0.00015305","RCS_SIZE":"LARGE","REV_AT_EPOCH":"12631","EPHEMERIS_TYPE":"0","TIME_SYSTEM":"UTC","TLE_LINE2":"2 47591  53.0536 320.6196 0001587  86.4620 273.6550 15.06391338126314","SITE":"AFETR","GP_ID":"231901696"},{"CENTER_NAME":"EARTH","NORAD_CAT_ID":"47592","FILE":"3908892","BSTAR":"0.00028977000000","COUNTRY_CODE":"US","PERIAPSIS":"546.497","MEAN_MOTION":"15.06400067","PERIOD":"95.592","CLASSIFICATION_TYPE":"U","ARG_OF_PERICENTER":"101.7291","RA_OF_ASC_NODE":"340.1810","ECCENTRICITY":"0.00010350","INCLINATION":"53.0549","OBJECT_TYPE":"PAYLOAD","ELEMENT_SET_NO":"999","MEAN_ELEMENT_THEORY":"SGP4","APOAPSIS":"547.930","DECAY_DATE":null,"LAUNCH_DATE":"2021-02-04","REF_FRAME":"TEME","MEAN_MOTION_DDOT":"0.0000000000000","TLE_LINE1":"1 47592U 21009AW  23135.86762589  .00004037  00000-0  28977-3 0  9994","TLE_LINE2":"2 47592  53.0549 340.1810 0001035 101.7291 258.3815 15.06400067125449","TIME_SYSTEM":"UTC","SITE":"AFETR","GP_ID":"231924872","EPHEMERIS_TYPE":"0","REV_AT_EPOCH":"12544","OBJECT_ID":"2021-009AW","MEAN_MOTION_DOT":"0.00004037","RCS_SIZE":"LARGE","SEMIMAJOR_AXIS":"6925.348","MEAN_ANOMALY":"258.3815","OBJECT_NAME":"STARLINK-1997","EPOCH":"2023-05-15T20:49:22.876896"},{"REF_FRAME":"TEME","TLE_LINE1":"1 47593U 21009AX  23135.83813840  .00002816  00000-0  20788-3 0  9994","MEAN_MOTION_DDOT":"0.0000000000000","APOAPSIS":"548.203","MEAN_ELEMENT_THEORY":"SGP4","ELEMENT_SET_NO":"999","LAUNCH_DATE":"2021-02-04","DECAY_DATE":null,"CLASSIFICATION_TYPE":"U","PERIOD":"95.593","MEAN_MOTION":"15.06393880","PERIAPSIS":"546.261","OBJECT_TYPE":"PAYLOAD","INCLINATION":"53.0532","RA_OF_ASC_NODE":"340.3161","ECCENTRICITY":"0.00014020","ARG_OF_PERICENTER":"69.8120","NORAD_CAT_ID":"47593","CENTER_NAME":"EARTH","COUNTRY_CODE":"US","BSTAR":"0.00020788000000","FILE":"3908892","OBJECT_NAME":"STARLINK-1998","MEAN_ANOMALY":"290.3020","EPOCH":"2023-05-15T20:06:55.157760","REV_AT_EPOCH":"12544","SEMIMAJOR_AXIS":"6925.367","RCS_SIZE":"LARGE","MEAN_MOTION_DOT":"0.00002816","OBJECT_ID":"2021-009AX","EPHEMERIS_TYPE":"0","GP_ID":"231923864","SITE":"AFETR","TIME_SYSTEM":"UTC","TLE_LINE2":"2 47593  53.0532 340.3161 0001402  69.8120 290.3020 15.06393880125444"},{"FILE":"3908892","BSTAR":"-0.00002612200000","COUNTRY_CODE":"US","CENTER_NAME":"EARTH","NORAD_CAT_ID":"47594","ARG_OF_PERICENTER":"110.8179","ECCENTRICITY":"0.00009700","RA_OF_ASC_NODE":"340.1660","INCLINATION":"53.0548","OBJECT_TYPE":"PAYLOAD","PERIAPSIS":"546.556","MEAN_MOTION":"15.06395471","PERIOD":"95.592","CLASSIFICATION_TYPE":"U","LAUNCH_DATE":"2021-02-04","DECAY_DATE":null,"ELEMENT_SET_NO":"999","MEAN_ELEMENT_THEORY":"SGP4","APOAPSIS":"547.899","MEAN_MOTION_DDOT":"0.0000000000000","TLE_LINE1":"1 47594U 21009AY  23135.87130891 -.00000670  00000-0 -26122-4 0  9994","REF_FRAME":"TEME","TLE_LINE2":"2 47594  53.0548 340.1660 0000970 110.8179 249.2914 15.06395471125447","TIME_SYSTEM":"UTC","SITE":"AFETR","GP_ID":"231924372","EPHEMERIS_TYPE":"0","OBJECT_ID":"2021-009AY","RCS_SIZE":"LARGE","MEAN_MOTION_DOT":"-0.00000670","SEMIMAJOR_AXIS":"6925.362","REV_AT_EPOCH":"12544","EPOCH":"2023-05-15T20:54:41.089824","MEAN_ANOMALY":"249.2914","OBJECT_NAME":"STARLINK-1999"}];
